H1 CPF 01  gfz 2022 07 21 12  7022 tandemx   
H2 1003001  6202 36605    2022 07 21 12 59 42 2022 07 26 00 00 42   120 1 1  0 0 0
H9
10 0 59785  32382.000000  0   -4403885.150   4759711.070   2317473.191
10 0 59785  32502.000000  0   -4026032.246   4614650.630   3145941.597
10 0 59785  32622.000000  0   -3581091.229   4381700.320   3919008.439
10 0 59785  32742.000000  0   -3078367.306   4063856.337   4623074.548
10 0 59785  32862.000000  0   -2528111.300   3665775.763   5245769.382
10 0 59785  32982.000000  0   -1941306.272   3193703.997   5776167.898
10 0 59785  33102.000000  0   -1329444.173   2655371.090   6204978.642
10 0 59785  33222.000000  0    -704297.480   2059859.133   6524700.361
10 0 59785  33342.000000  0     -77692.557   1417445.103   6729745.814
10 0 59785  33462.000000  0     538713.788    739421.187   6816534.638
10 0 59785  33582.000000  0    1133650.686     37895.588   6783551.152
10 0 59785  33702.000000  0    1696438.090   -674422.745   6631369.563
10 0 59785  33822.000000  0    2217177.984  -1384453.968   6362645.174
10 0 59785  33942.000000  0    2686928.792  -2078986.603   5982071.534
10 0 59785  34062.000000  0    3097861.361  -2744924.070   5496304.010
10 0 59785  34182.000000  0    3443392.292  -3369533.274   4913848.874
10 0 59785  34302.000000  0    3718292.927  -3940691.416   4244920.340
10 0 59785  34422.000000  0    3918772.430  -4447126.145   3501265.729
10 0 59785  34542.000000  0    4042531.530  -4878643.821   2695960.900
10 0 59785  34662.000000  0    4088786.520  -5226340.567   1843179.493
10 0 59785  34782.000000  0    4058262.279  -5482790.407    957939.384
10 0 59785  34902.000000  0    3953153.711  -5642205.272     55831.565
10 0 59785  35022.000000  0    3777057.914  -5700563.427   -847261.378
10 0 59785  35142.000000  0    3534877.469  -5655703.894  -1735454.586
10 0 59785  35262.000000  0    3232696.720  -5507381.500  -2593148.463
10 0 59785  35382.000000  0    2877636.533  -5257284.125  -3405309.002
10 0 59785  35502.000000  0    2477689.198  -4909010.406  -4157735.292
10 0 59785  35622.000000  0    2041538.730  -4468009.633  -4837307.172
10 0 59785  35742.000000  0    1578372.409  -3941486.207  -5432208.952
10 0 59785  35862.000000  0    1097688.674  -3338272.302  -5932126.309
10 0 59785  35982.000000  0     609103.864  -2668672.630  -6328414.748
10 0 59785  36102.000000  0     122161.896  -1944283.745  -6614238.081
10 0 59785  36222.000000  0    -353848.560  -1177791.035  -6784675.407
10 0 59785  36342.000000  0    -810066.254   -382747.714  -6836796.875
10 0 59785  36462.000000  0   -1238217.687    426660.806  -6769707.953
10 0 59785  36582.000000  0   -1630763.704   1235863.425  -6584562.349
10 0 59785  36702.000000  0   -1981028.999   2030159.115  -6284544.215
10 0 59785  36822.000000  0   -2283313.785   2794977.264  -5874820.002
10 0 59785  36942.000000  0   -2532986.928   3516141.559  -5362459.506
10 0 59785  37062.000000  0   -2726557.902   4180131.931  -4756325.398
10 0 59785  37182.000000  0   -2861727.492   4774341.225  -4066931.168
10 0 59785  37302.000000  0   -2937414.361   5287319.865  -3306267.356
10 0 59785  37422.000000  0   -2953756.670   5709002.592  -2487600.759
10 0 59785  37542.000000  0   -2912090.117   6030915.834  -1625248.934
10 0 59785  37662.000000  0   -2814900.325   6246357.951   -734329.400
10 0 59785  37782.000000  0   -2665751.262   6350545.118    169507.732
10 0 59785  37902.000000  0   -2469192.988   6340724.619   1070359.981
10 0 59785  38022.000000  0   -2230646.368   6216246.105   1952364.110
10 0 59785  38142.000000  0   -1956268.843   5978587.020   2799985.445
10 0 59785  38262.000000  0   -1652806.939   5631335.702   3598298.825
10 0 59785  38382.000000  0   -1327439.145   5180133.060   4333256.707
10 0 59785  38502.000000  0    -987612.737   4632573.742   4991940.149
10 0 59785  38622.000000  0    -640876.569   3998068.530   5562786.320
10 0 59785  38742.000000  0    -294717.012   3287674.148   6035788.071
10 0 59785  38862.000000  0      43600.326   2513892.098   6402665.260
10 0 59785  38982.000000  0     367180.346   1690442.729   6657003.104
10 0 59785  39102.000000  0     669636.946    832018.151   6794358.971
10 0 59785  39222.000000  0     945217.301    -45981.657   6812334.148
10 0 59785  39342.000000  0    1188910.133   -927723.827   6710613.564
10 0 59785  39462.000000  0    1396536.529  -1797227.899   6490971.775
10 0 59785  39582.000000  0    1564821.889  -2638654.969   6157244.350
10 0 59785  39702.000000  0    1691447.805  -3436597.560   5715265.284
10 0 59785  39822.000000  0    1775082.677  -4176364.626   5172769.771
10 0 59785  39942.000000  0    1815391.259  -4844255.192   4539263.974
10 0 59785  40062.000000  0    1813023.680  -5427818.551   3825865.181
10 0 59785  40182.000000  0    1769582.978  -5916096.485   3045109.664
10 0 59785  40302.000000  0    1687570.312  -6299837.421   2210731.643
10 0 59785  40422.000000  0    1570311.397  -6571679.779   1337420.203
10 0 59785  40542.000000  0    1421864.869  -6726301.308    440556.429
10 0 59785  40662.000000  0    1246914.081  -6760528.877   -464064.552
10 0 59785  40782.000000  0    1050644.393  -6673406.138  -1360522.435
10 0 59785  40902.000000  0     838610.275  -6466212.010  -2233062.074
10 0 59785  41022.000000  0     616596.184  -6142434.570  -3066376.569
10 0 59785  41142.000000  0     390475.812  -5707702.828  -3845879.949
10 0 59785  41262.000000  0     166071.296  -5169676.809  -4557963.901
10 0 59785  41382.000000  0     -50983.824  -4537899.186  -5190231.984
10 0 59785  41502.000000  0    -255374.025  -3823614.587  -5731708.617
10 0 59785  41622.000000  0    -442221.068  -3039559.714  -6173020.400
10 0 59785  41742.000000  0    -607190.578  -2199729.786  -6506547.214
10 0 59785  41862.000000  0    -746584.451  -1319126.065  -6726542.207
10 0 59785  41982.000000  0    -857417.549   -413489.621  -6829220.917
10 0 59785  42102.000000  0    -937477.303    500976.126  -6812819.260
10 0 59785  42222.000000  0    -985365.702   1407888.200  -6677619.353
10 0 59785  42342.000000  0   -1000523.267   2290969.934  -6425945.148
10 0 59785  42462.000000  0    -983234.514   3134335.770  -6062127.440
10 0 59785  42582.000000  0    -934614.897   3922773.501  -5592438.533
10 0 59785  42702.000000  0    -856579.205   4642017.835  -5024994.334
10 0 59785  42822.000000  0    -751792.020   5279011.755  -4369626.027
10 0 59785  42942.000000  0    -623601.133   5822150.907  -3637719.955
10 0 59785  43062.000000  0    -475954.426   6261504.458  -2842027.919
10 0 59785  43182.000000  0    -313301.807   6589008.388  -1996451.047
10 0 59785  43302.000000  0    -140484.508   6798626.335  -1115798.856
10 0 59785  43422.000000  0      37386.045   6886472.740   -215528.183
10 0 59785  43542.000000  0     215057.281   6850894.762    688533.165
10 0 59785  43662.000000  0     387268.837   6692510.055   1580472.877
10 0 59785  43782.000000  0     548885.960   6414197.497   2444583.866
10 0 59785  43902.000000  0     695029.133   6021041.668   3265648.564
10 0 59785  44022.000000  0     821197.676   5520235.069   4029213.374
10 0 59785  44142.000000  0     923386.306   4920940.741   4721848.200
10 0 59785  44262.000000  0     998186.899   4234111.950   5331388.395
10 0 59785  44382.000000  0    1042876.591   3472280.148   5847143.184
10 0 59785  44502.000000  0    1055490.737   2649319.062   6260079.029
10 0 59785  44622.000000  0    1034876.644   1780185.213   6562972.770
10 0 59785  44742.000000  0     980728.965    880641.352   6750532.215
10 0 59785  44862.000000  0     893605.925    -33031.662   6819482.135
10 0 59785  44982.000000  0     774925.988   -944328.169   6768618.201
10 0 59785  45102.000000  0     626944.692  -1836815.865   6598827.942
10 0 59785  45222.000000  0     452711.935  -2694431.925   6313076.480
10 0 59785  45342.000000  0     256010.467  -3501773.882   5916357.801
10 0 59785  45462.000000  0      41277.138  -4244377.404   5415609.763
10 0 59785  45582.000000  0    -186491.372  -4908977.353   4819599.257
10 0 59785  45702.000000  0    -421847.345  -5483751.765   4138777.103
10 0 59785  45822.000000  0    -659014.813  -5958543.103   3385099.083
10 0 59785  45942.000000  0    -892022.938  -6325047.487   2571817.043
10 0 59785  46062.000000  0   -1114845.573  -6576969.216   1713244.636
10 0 59785  46182.000000  0   -1321544.759  -6710138.195    824502.468
10 0 59785  46302.000000  0   -1506416.243  -6722585.165    -78756.291
10 0 59785  46422.000000  0   -1664129.501  -6614570.695   -980630.828
10 0 59785  46542.000000  0   -1789860.346  -6388569.580  -1865261.293
10 0 59785  46662.000000  0   -1879413.228  -6049211.422  -2717115.270
10 0 59785  46782.000000  0   -1929330.317  -5603178.655  -3521266.669
10 0 59785  46902.000000  0   -1936984.198  -5059064.090  -4263660.392
10 0 59785  47022.000000  0   -1900651.804  -4427193.203  -4931356.376
10 0 59785  47142.000000  0   -1819568.701  -3719417.432  -5512749.326
10 0 59785  47262.000000  0   -1693962.942  -2948883.579  -5997762.169
10 0 59785  47382.000000  0   -1525067.769  -2129783.575  -6378011.037
10 0 59785  47502.000000  0   -1315113.091  -1277089.779  -6646938.557
10 0 59785  47622.000000  0   -1067297.045   -406282.365  -6799915.526
10 0 59785  47742.000000  0    -785738.028    466927.572  -6834311.643
10 0 59785  47862.000000  0    -475406.685   1326874.530  -6749535.198
10 0 59785  47982.000000  0    -142040.373   2158212.164  -6547041.907
10 0 59785  48102.000000  0     207958.838   2946180.242  -6230313.771
10 0 59785  48222.000000  0     567643.662   3676863.551  -5804807.202
10 0 59785  48342.000000  0     929655.394   4337436.526  -5277867.535
10 0 59785  48462.000000  0    1286369.251   4916390.294  -4658613.923
10 0 59785  48582.000000  0    1630050.423   5403740.122  -3957792.968
10 0 59785  48702.000000  0    1953017.386   5791206.487  -3187601.207
10 0 59785  48822.000000  0    2247808.751   6072366.475  -2361480.258
99
